{
  "type": "FeatureCollection",
  "features": [
    {
      "type": "Feature",
      "properties": {
        "norad_id": 25590,
        "name": "COSMOS 2361",
        "group": "musson",
        "lat": 81.7695130827262,
        "lon": 107.45955851352826,
        "alt_km": 1002.7589966416735,
        "timestamp": "2025-12-09T11:33:55.069496+00:00",
        "meta_object_name": "COSMOS 2361",
        "meta_object_id": "1998-076A",
        "meta_epoch": "2025-12-09T02:40:28.905024",
        "meta_mean_motion": 13.73216881,
        "meta_eccentricity": 0.0030062,
        "meta_inclination": 82.9338,
        "meta_ra_of_asc_node": 346.7702,
        "meta_arg_of_pericenter": 276.1386,
        "meta_mean_anomaly": 147.7937,
        "meta_ephemeris_type": 0,
        "meta_classification_type": "U",
        "meta_norad_cat_id": 25590,
        "meta_element_set_no": 999,
        "meta_rev_at_epoch": 35061,
        "meta_bstar": 7.6819e-05,
        "meta_mean_motion_dot": 8.6e-07,
        "meta_mean_motion_ddot": 0,
        "tle_line1": "1 25590U 98076A   25343.11144566  .00000086  00000+0  76819-4 0  9994",
        "tle_line2": "2 25590  82.9338 346.7702 0030062 276.1386 147.7937 13.73216881350612"
      },
      "geometry": {
        "type": "Point",
        "coordinates": [
          107.45955851352826,
          81.7695130827262
        ]
      }
    },
    {
      "type": "Feature",
      "properties": {
        "norad_id": 26818,
        "name": "COSMOS 2378",
        "group": "musson",
        "lat": 24.00733659770748,
        "lon": 178.9711406331844,
        "alt_km": 971.633956984675,
        "timestamp": "2025-12-09T11:33:55.069518+00:00",
        "meta_object_name": "COSMOS 2378",
        "meta_object_id": "2001-023A",
        "meta_epoch": "2025-12-09T04:09:04.569120",
        "meta_mean_motion": 13.74141509,
        "meta_eccentricity": 0.0032205,
        "meta_inclination": 82.9273,
        "meta_ra_of_asc_node": 2.3698,
        "meta_arg_of_pericenter": 215.0028,
        "meta_mean_anomaly": 213.6785,
        "meta_ephemeris_type": 0,
        "meta_classification_type": "U",
        "meta_norad_cat_id": 26818,
        "meta_element_set_no": 999,
        "meta_rev_at_epoch": 22874,
        "meta_bstar": 4.7713e-05,
        "meta_mean_motion_dot": 6e-07,
        "meta_mean_motion_ddot": 0,
        "tle_line1": "1 26818U 01023A   25343.17296955  .00000060  00000+0  47713-4 0  9993",
        "tle_line2": "2 26818  82.9273   2.3698 0032205 215.0028 213.6785 13.74141509228746"
      },
      "geometry": {
        "type": "Point",
        "coordinates": [
          178.9711406331844,
          24.00733659770748
        ]
      }
    },
    {
      "type": "Feature",
      "properties": {
        "norad_id": 27436,
        "name": "COSMOS 2389",
        "group": "musson",
        "lat": -9.50634972152341,
        "lon": -51.790692339670244,
        "alt_km": 978.3300154281196,
        "timestamp": "2025-12-09T11:33:55.069531+00:00",
        "meta_object_name": "COSMOS 2389",
        "meta_object_id": "2002-026A",
        "meta_epoch": "2025-12-08T23:40:49.145952",
        "meta_mean_motion": 13.75154005,
        "meta_eccentricity": 0.0047705,
        "meta_inclination": 82.9499,
        "meta_ra_of_asc_node": 309.7632,
        "meta_arg_of_pericenter": 70.9381,
        "meta_mean_anomaly": 349.9653,
        "meta_ephemeris_type": 0,
        "meta_classification_type": "U",
        "meta_norad_cat_id": 27436,
        "meta_element_set_no": 999,
        "meta_rev_at_epoch": 18097,
        "meta_bstar": 8.1346e-05,
        "meta_mean_motion_dot": 9.4e-07,
        "meta_mean_motion_ddot": 0,
        "tle_line1": "1 27436U 02026A   25342.98667993  .00000094  00000+0  81346-4 0  9993",
        "tle_line2": "2 27436  82.9499 309.7632 0047705  70.9381 349.9653 13.75154005180971"
      },
      "geometry": {
        "type": "Point",
        "coordinates": [
          -51.790692339670244,
          -9.50634972152341
        ]
      }
    },
    {
      "type": "Feature",
      "properties": {
        "norad_id": 27818,
        "name": "COSMOS 2398",
        "group": "musson",
        "lat": -23.957956271278892,
        "lon": -88.05382706073087,
        "alt_km": 1015.9082822223008,
        "timestamp": "2025-12-09T11:33:55.069543+00:00",
        "meta_object_name": "COSMOS 2398",
        "meta_object_id": "2003-023A",
        "meta_epoch": "2025-12-08T22:00:01.531296",
        "meta_mean_motion": 13.72385084,
        "meta_eccentricity": 0.0032448,
        "meta_inclination": 82.9482,
        "meta_ra_of_asc_node": 275.5155,
        "meta_arg_of_pericenter": 122.0308,
        "meta_mean_anomaly": 303.2785,
        "meta_ephemeris_type": 0,
        "meta_classification_type": "U",
        "meta_norad_cat_id": 27818,
        "meta_element_set_no": 999,
        "meta_rev_at_epoch": 12764,
        "meta_bstar": 8.9307e-05,
        "meta_mean_motion_dot": 9.7e-07,
        "meta_mean_motion_ddot": 0,
        "tle_line1": "1 27818U 03023A   25342.91668439  .00000097  00000+0  89307-4 0  9992",
        "tle_line2": "2 27818  82.9482 275.5155 0032448 122.0308 303.2785 13.72385084127647"
      },
      "geometry": {
        "type": "Point",
        "coordinates": [
          -88.05382706073087,
          -23.957956271278892
        ]
      }
    },
    {
      "type": "Feature",
      "properties": {
        "norad_id": 28380,
        "name": "COSMOS 2407",
        "group": "musson",
        "lat": 53.04398903827628,
        "lon": 25.85287243390513,
        "alt_km": 958.2518160373493,
        "timestamp": "2025-12-09T11:33:55.069554+00:00",
        "meta_object_name": "COSMOS 2407",
        "meta_object_id": "2004-028A",
        "meta_epoch": "2025-12-09T04:32:09.726144",
        "meta_mean_motion": 13.7631308,
        "meta_eccentricity": 0.0040429,
        "meta_inclination": 82.9611,
        "meta_ra_of_asc_node": 215.5215,
        "meta_arg_of_pericenter": 64.4728,
        "meta_mean_anomaly": 51.0756,
        "meta_ephemeris_type": 0,
        "meta_classification_type": "U",
        "meta_norad_cat_id": 28380,
        "meta_element_set_no": 999,
        "meta_rev_at_epoch": 7374,
        "meta_bstar": 7.8594e-05,
        "meta_mean_motion_dot": 9.3e-07,
        "meta_mean_motion_ddot": 0,
        "tle_line1": "1 28380U 04028A   25343.18900146  .00000093  00000+0  78594-4 0  9999",
        "tle_line2": "2 28380  82.9611 215.5215 0040429  64.4728  51.0756 13.76313080 73748"
      },
      "geometry": {
        "type": "Point",
        "coordinates": [
          25.85287243390513,
          53.04398903827628
        ]
      }
    },
    {
      "type": "Feature",
      "properties": {
        "norad_id": 28521,
        "name": "COSMOS 2414",
        "group": "musson",
        "lat": -72.6334013419662,
        "lon": 30.433929737383433,
        "alt_km": 951.0260823160052,
        "timestamp": "2025-12-09T11:33:55.069564+00:00",
        "meta_object_name": "COSMOS 2414",
        "meta_object_id": "2005-002A",
        "meta_epoch": "2025-12-09T01:41:49.331904",
        "meta_mean_motion": 13.87902232,
        "meta_eccentricity": 0.0040679,
        "meta_inclination": 82.9495,
        "meta_ra_of_asc_node": 187.4344,
        "meta_arg_of_pericenter": 149.9836,
        "meta_mean_anomaly": 210.3672,
        "meta_ephemeris_type": 0,
        "meta_classification_type": "U",
        "meta_norad_cat_id": 28521,
        "meta_element_set_no": 999,
        "meta_rev_at_epoch": 5744,
        "meta_bstar": 6.9803e-05,
        "meta_mean_motion_dot": 1e-06,
        "meta_mean_motion_ddot": 0,
        "tle_line1": "1 28521U 05002A   25343.07070986  .00000100  00000+0  69803-4 0  9999",
        "tle_line2": "2 28521  82.9495 187.4344 0040679 149.9836 210.3672 13.87902232 57442"
      },
      "geometry": {
        "type": "Point",
        "coordinates": [
          30.433929737383433,
          -72.6334013419662
        ]
      }
    },
    {
      "type": "Feature",
      "properties": {
        "norad_id": 32052,
        "name": "COSMOS 2429",
        "group": "musson",
        "lat": 2.5267097933928766,
        "lon": 165.39930054887444,
        "alt_km": 1002.5368795354452,
        "timestamp": "2025-12-09T11:33:55.069575+00:00",
        "meta_object_name": "COSMOS 2429",
        "meta_object_id": "2007-038A",
        "meta_epoch": "2025-12-09T01:58:39.605376",
        "meta_mean_motion": 13.75148778,
        "meta_eccentricity": 0.0039415,
        "meta_inclination": 82.9803,
        "meta_ra_of_asc_node": 346.0052,
        "meta_arg_of_pericenter": 47.8194,
        "meta_mean_anomaly": 312.6298,
        "meta_ephemeris_type": 0,
        "meta_classification_type": "U",
        "meta_norad_cat_id": 32052,
        "meta_element_set_no": 999,
        "meta_rev_at_epoch": 91552,
        "meta_bstar": 5.7631e-05,
        "meta_mean_motion_dot": 7.1e-07,
        "meta_mean_motion_ddot": 0,
        "tle_line1": "1 32052U 07038A   25343.08240284  .00000071  00000+0  57631-4 0  9998",
        "tle_line2": "2 32052  82.9803 346.0052 0039415  47.8194 312.6298 13.75148778915523"
      },
      "geometry": {
        "type": "Point",
        "coordinates": [
          165.39930054887444,
          2.5267097933928766
        ]
      }
    },
    {
      "type": "Feature",
      "properties": {
        "norad_id": 35635,
        "name": "COSMOS 2454",
        "group": "musson",
        "lat": -77.79478420232711,
        "lon": 136.249285450797,
        "alt_km": 950.506543145776,
        "timestamp": "2025-12-09T11:33:55.069585+00:00",
        "meta_object_name": "COSMOS 2454",
        "meta_object_id": "2009-039A",
        "meta_epoch": "2025-12-09T02:09:52.072128",
        "meta_mean_motion": 13.89927851,
        "meta_eccentricity": 0.0020482,
        "meta_inclination": 82.9555,
        "meta_ra_of_asc_node": 171.4116,
        "meta_arg_of_pericenter": 83.4743,
        "meta_mean_anomaly": 37.7576,
        "meta_ephemeris_type": 0,
        "meta_classification_type": "U",
        "meta_norad_cat_id": 35635,
        "meta_element_set_no": 999,
        "meta_rev_at_epoch": 83099,
        "meta_bstar": 5.4647e-05,
        "meta_mean_motion_dot": 8.3e-07,
        "meta_mean_motion_ddot": 0,
        "tle_line1": "1 35635U 09039A   25343.09018602  .00000083  00000+0  54647-4 0  9996",
        "tle_line2": "2 35635  82.9555 171.4116 0020482  83.4743  37.7576 13.89927851830991"
      },
      "geometry": {
        "type": "Point",
        "coordinates": [
          136.249285450797,
          -77.79478420232711
        ]
      }
    },
    {
      "type": "Feature",
      "properties": {
        "norad_id": 36519,
        "name": "COSMOS 2463",
        "group": "musson",
        "lat": 5.753389969188004,
        "lon": -151.6064948925689,
        "alt_km": 1009.8545336405068,
        "timestamp": "2025-12-09T11:33:55.069604+00:00",
        "meta_object_name": "COSMOS 2463",
        "meta_object_id": "2010-017A",
        "meta_epoch": "2025-12-09T03:48:53.335296",
        "meta_mean_motion": 13.71648739,
        "meta_eccentricity": 0.0034867,
        "meta_inclination": 82.9615,
        "meta_ra_of_asc_node": 29.3439,
        "meta_arg_of_pericenter": 298.3646,
        "meta_mean_anomaly": 82.3141,
        "meta_ephemeris_type": 0,
        "meta_classification_type": "U",
        "meta_norad_cat_id": 36519,
        "meta_element_set_no": 999,
        "meta_rev_at_epoch": 78188,
        "meta_bstar": 6.9531e-05,
        "meta_mean_motion_dot": 7.8e-07,
        "meta_mean_motion_ddot": 0,
        "tle_line1": "1 36519U 10017A   25343.15895064  .00000078  00000+0  69531-4 0  9990",
        "tle_line2": "2 36519  82.9615  29.3439 0034867 298.3646  82.3141 13.71648739781883"
      },
      "geometry": {
        "type": "Point",
        "coordinates": [
          -151.6064948925689,
          5.753389969188004
        ]
      }
    }
  ]
}